[ {"name": "STARLINK-34236", "line1": "1 64743U 25144V   26156.22395079  .00028758  00000+0  97820-3 0  9995", "line2": "2 64743  53.1572 134.4592 0001371  96.5347 263.5810 15.30237927 53117"}, {"name": "STARLINK-34185", "line1": "1 64744U 25144W   26156.65793669  .00023893  00000+0  81556-3 0  9994", "line2": "2 64744  53.1607 132.1871 0000313 105.4561 254.6475 15.30226295 53186"}, {"name": "STARLINK-34581", "line1": "1 64745U 25144X   26156.64116527  .00029505  00000+0  10034-2 0  9994", "line2": "2 64745  53.1585 132.7947 0001903  75.5035 284.6177 15.30230172 53171"}, {"name": "STARLINK-34592", "line1": "1 64746U 25144Y   26156.63533121  .00033822  00000+0  11483-2 0  9993", "line2": "2 64746  53.1593 119.9805 0000171  41.2314 318.8699 15.30216315 53359"}, {"name": "STARLINK-34589", "line1": "1 64747U 25144Z   26156.18550833  .00036653  00000+0  12426-2 0  9996", "line2": "2 64747  53.1581 122.0853 0001451  91.2384 268.8783 15.30223810 53287"}, {"name": "STARLINK-34536", "line1": "1 64748U 25144AA  26156.23027933  .00028094  00000+0  95653-3 0  9997", "line2": "2 64748  53.1573 134.4968 0001303  95.7704 264.3446 15.30218316 53118"}, {"name": "STARLINK-34595", "line1": "1 64749U 25144AB  26156.23133439  .00015489  00000+0  53394-3 0  9997", "line2": "2 64749  53.1582 134.4992 0001424  81.7944 278.3218 15.30202940 53119"}, {"name": "STARLINK-34531", "line1": "1 64750U 25144AC  26156.21444971  .00024407  00000+0  83316-3 0  9990", "line2": "2 64750  53.1588 134.4001 0001333  94.3342 265.7811 15.30212207 53115"}, {"name": "STARLINK-33965", "line1": "1 64755U 25147A   26156.37876645  .00043331  00000+0  12836-2 0  9997", "line2": "2 64755  53.1580 194.3006 0001290  54.5275 305.5848 15.34464841 52239"}, {"name": "STARLINK-34371", "line1": "1 64756U 25147B   26156.39839975  .00018163  00000+0  59537-3 0  9990", "line2": "2 64756  53.1563 195.1204 0001005  78.2559 281.8555 15.31714542 52135"}, {"name": "STARLINK-34401", "line1": "1 64757U 25147C   26156.59735990  .00023510  00000+0  70512-3 0  9993", "line2": "2 64757  53.1571 193.5252 0001562  92.1856 267.9326 15.34384442 52151"}, {"name": "STARLINK-34593", "line1": "1 64758U 25147D   26156.69394227  .00016030  00000+0  48440-3 0  9993", "line2": "2 64758  53.1577 192.7057 0001201  66.7680 293.3449 15.34409093 52243"}, {"name": "STARLINK-34598", "line1": "1 64759U 25147E   26156.68561285  .00018633  00000+0  56150-3 0  9991", "line2": "2 64759  53.1583 193.3559 0001434 147.9078 212.2012 15.34384625 52188"}, {"name": "STARLINK-34235", "line1": "1 64760U 25147F   26156.75285103  .00071087  00000+0  20984-2 0  9990", "line2": "2 64760  53.1576 193.0723 0001422  80.4308 279.6855 15.34352006 52287"}, {"name": "STARLINK-34635", "line1": "1 64761U 25147G   26156.41665307  .00011691  00000+0  35666-3 0  9991", "line2": "2 64761  53.1575 194.5256 0001187 124.7406 235.3709 15.34394557 52197"}, {"name": "STARLINK-34638", "line1": "1 64762U 25147H   26156.57631016  .00021666  00000+0  65074-3 0  9998", "line2": "2 64762  53.1578 193.3926 0001021  91.2309 268.8811 15.34388229 52227"}, {"name": "STARLINK-34534", "line1": "1 64763U 25147J   26156.60154219  .00022881  00000+0  68626-3 0  9994", "line2": "2 64763  53.1569 193.5470 0001157  85.5685 274.5450 15.34400307 52222"}, {"name": "STARLINK-34261", "line1": "1 64764U 25147K   26156.56999700  .00035240  00000+0  10487-2 0  9996", "line2": "2 64764  53.1582 193.3497 0001174  80.1374 279.9762 15.34414918 52262"}, {"name": "STARLINK-34566", "line1": "1 64765U 25147L   26156.39140396  .00014111  00000+0  42798-3 0  9992", "line2": "2 64765  53.1577 194.3658 0001147  84.1578 275.9555 15.34400487 52191"}, {"name": "STARLINK-34645", "line1": "1 64766U 25147M   26156.38635891  .00019468  00000+0  66779-3 0  9996", "line2": "2 64766  53.1568 195.7529 0001294  86.6008 273.5140 15.30195324 52171"}, {"name": "STARLINK-34639", "line1": "1 64767U 25147N   26156.59312465  .00029367  00000+0  87677-3 0  9998", "line2": "2 64767  53.1553 193.4909 0000965  89.8598 270.2515 15.34404065 52175"}, {"name": "STARLINK-34609", "line1": "1 64768U 25147P   26156.35268526  .00023320  00000+0  79647-3 0  9992", "line2": "2 64768  53.1559 185.6022 0001095  94.8842 265.2284 15.30222524 52311"}, {"name": "STARLINK-34246", "line1": "1 64769U 25147Q   26156.71076706  .00051877  00000+0  15379-2 0  9999", "line2": "2 64769  53.1561 192.8127 0001147  75.6727 284.4402 15.34359817 52245"}, {"name": "STARLINK-34618", "line1": "1 64770U 25147R   26156.69184041  .00022638  00000+0  67923-3 0  9996", "line2": "2 64770  53.1584 192.6910 0001329  65.8998 294.2144 15.34394934 52176"}, {"name": "STARLINK-34541", "line1": "1 64771U 25147S   26156.70866751  .00026481  00000+0  79206-3 0  9991", "line2": "2 64771  53.1574 192.7914 0001075 129.0010 231.1088 15.34402442 52178"}, {"name": "STARLINK-34652", "line1": "1 64772U 25147T   26156.51956555  .00018136  00000+0  54667-3 0  9995", "line2": "2 64772  53.1567 193.7430 0000941  89.2850 270.8261 15.34394860 52217"}, {"name": "STARLINK-34612", "line1": "1 64773U 25147U   26156.57209653  .00029300  00000+0  87541-3 0  9994", "line2": "2 64773  53.1586 193.3624 0001063  81.7803 278.3320 15.34382701 52222"}, {"name": "STARLINK-34621", "line1": "1 64774U 25147V   26156.38002441  .00021264  00000+0  72729-3 0  9993", "line2": "2 64774  53.1579 195.7100 0002111  25.1701 334.9403 15.30231105 52109"}, {"name": "STARLINK-34657", "line1": "1 64775U 25147W   26156.59522714  .00025752  00000+0  77064-3 0  9990", "line2": "2 64775  53.1567 193.5057 0001120  98.0628 262.0502 15.34401732 52223"}, {"name": "STARLINK-34637", "line1": "1 64776U 25147X   26156.60785242  .00023652  00000+0  70905-3 0  9994", "line2": "2 64776  53.1569 193.5806 0001234 100.8853 259.2288 15.34394513 52155"}]